GLOBALSTAR M001         
1 25162U 98008A   24212.44729163 -.00000045  00000+0  39490-3 0  9995
2 25162  52.0006 189.6589 0001744 296.4505 205.5446 12.38189510203856
GLOBALSTAR M004         
1 25163U 98008B   24212.54431398 -.00000041  00000+0  34901-3 0  9995
2 25163  52.0017 315.3894 0002331 295.6451  77.6469 12.63366515221033
GLOBALSTAR M002         
1 25164U 98008C   24212.82618100 -.00000083  00000+0 -13581-3 0  9993
2 25164  52.0040 325.9614 0000766 261.6493  98.4241 11.61502382146795
GLOBALSTAR M003         
1 25165U 98008D   24212.85609027  .00000067  00000+0  16711-2 0  9992
2 25165  51.9928 338.4742 0007782  12.2339 157.7226 12.12023228194344
GLOBALSTAR M014         
1 25306U 98023A   24212.61863222 -.00000050  00000+0  51850-3 0  9996
2 25306  51.9814 256.4681 0001098 140.8818  26.1152 11.65469502153674
GLOBALSTAR M006         
1 25307U 98023B   24212.75387810 -.00000059  00000+0  34018-3 0  9992
2 25307  51.9946 296.5865 0003700 237.8670 295.5244 11.58163654179690
GLOBALSTAR M015         
1 25308U 98023C   24212.55532145 -.00000149  00000+0 -17251-2 0  9994
2 25308  51.9846  20.8067 0012116 221.3859 166.3325 11.48848280157482
GLOBALSTAR M008         
1 25309U 98023D   24212.86942528 -.00000080  00000+0  13009-3 0  9990
2 25309  51.9978  49.6200 0001952 202.8936 170.2093 12.36045805198428
